"15P-Finlay:1893 K1:1886 S1" "Sol"
{
	Class	"comet"
	Mesh	"asteroid.cmod"
	Texture	"comet.jpg"
	Radius	0.9
	Visible	true
	Clickable	true
	EllipticalOrbit
	{
		Epoch	2457164.5  # 2015 May 22
		Period	6.513313600976
		SemiMajorAxis	3.487620254045
		Eccentricity	0.720169054955
		Inclination	6.799019364916
		AscendingNode	13.775064885956
		ArgOfPericenter	347.559241376592
		MeanAnomaly	22.084957655658
	}
	UniformRotation
	{
		Period	6
	}
	Albedo	0.04
	InfoURL	"http://ssd.jpl.nasa.gov/sbdb.cgi?sstr=15P"
}

"16P-Brooks:Brooks 2:1896 M1:1889 N1" "Sol"
{
	Class	"comet"
	Mesh	"asteroid.cmod"
	Texture	"comet.jpg"
	Radius	2.5
	Visible	true
	Clickable	true
	EllipticalOrbit
	{
		Epoch	2457164.5  # 2015 May 22
		Period	6.154208125394
		SemiMajorAxis	3.358221347551
		Eccentricity	0.56322340952
		Inclination	4.261187225367
		AscendingNode	159.280432422575
		ArgOfPericenter	219.748841715795
		MeanAnomaly	55.774989817647
	}
	UniformRotation
	{
		Period	6
	}
	Albedo	0.04
	InfoURL	"http://ssd.jpl.nasa.gov/sbdb.cgi?sstr=16P"
}

"17P-Holmes:1964 O1:1899 L1:1892 V1" "Sol"
{
	Class	"comet"
	Mesh	"asteroid.cmod"
	Texture	"comet.jpg"
	Radius	1.71
	Visible	true
	Clickable	true
	EllipticalOrbit
	{
		Epoch	2457164.5  # 2015 May 22
		Period	6.888690438677
		SemiMajorAxis	3.620364612305
		Eccentricity	0.43169181581
		Inclination	19.091958963212
		AscendingNode	326.763342188695
		ArgOfPericenter	24.561295944032
		MeanAnomaly	60.155626180227
	}
	UniformRotation
	{
		Period	6
	}
	Albedo	0.04
	InfoURL	"http://ssd.jpl.nasa.gov/sbdb.cgi?sstr=17P"
}

"18D-Perrine-Mrkos:1955 U1:1909 P1:1896 X1" "Sol"
{
	Class	"comet"
	Mesh	"asteroid.cmod"
	Texture	"comet.jpg"
	Radius	2.5
	Ending	"1969 01 19"
	Visible	true
	Clickable	true
	EllipticalOrbit
	{
		Epoch	2440240.5  # 1969 Jan 19
		Period	6.715825823291
		SemiMajorAxis	3.55954221482
		Eccentricity	0.642580982439
		Inclination	17.758982772232
		AscendingNode	240.875546630917
		ArgOfPericenter	166.050417124945
		MeanAnomaly	11.514613023145
	}
	UniformRotation
	{
		Period	6
	}
	Albedo	0.04
	InfoURL	"http://ssd.jpl.nasa.gov/sbdb.cgi?sstr=18D"
}

"19P-Borrelly:1911 S1:1904 Y2" "Sol"
{
	Class	"comet"
	Mesh	"borrelly.cmod"
	Orientation	[ 90 0 1 0 ]
	Texture	"comet.jpg"
	Radius	4
	Visible	true
	Clickable	true
	EllipticalOrbit
	{
		Epoch	2452173.5  # 2001 Sept 21
		Period	6.86299633659496
		SemiMajorAxis	3.611356616358802
		Eccentricity	0.6239077576908486
		Inclination	30.32461897023887
		AscendingNode	75.42486905578778
		ArgOfPericenter	353.3754229719318
		MeanAnomaly	0.9002914457590138
	}
	UniformRotation
	{
		Period	25
		Inclination	90
		AscendingNode	315
	}
	Albedo	0.022
	InfoURL	"https://en.wikipedia.org/wiki/19P/Borrelly"
}

"20D-Westphal:1913 S1:1852 O1" "Sol"
{
	Class	"comet"
	Mesh	"asteroid.cmod"
	Texture	"comet.jpg"
	Radius	2.5
	Ending	"1913 11 09"
	Visible	true
	Clickable	true
	EllipticalOrbit
	{
		Epoch	2420080.5  # 1913 Nov 09
		Period	61.866133275606
		SemiMajorAxis	15.642152430418
		Eccentricity	0.919831188994
		Inclination	40.890061058703
		AscendingNode	348.006446931145
		ArgOfPericenter	57.08095497142
		MeanAnomaly	359.716572818609
	}
	UniformRotation
	{
		Period	6
	}
	Albedo	0.04
	InfoURL	"http://ssd.jpl.nasa.gov/sbdb.cgi?sstr=20D"
}

"21P-Giacobini-Zinner:1913 U1:1900 Y1" "Sol"
{
	Class	"comet"
	Mesh	"asteroid.cmod"
	Texture	"comet.jpg"
	Radius	1
	Visible	true
	Clickable	true
	EllipticalOrbit
	{
		Epoch	2446319.5  # 1985 Sept 11
		Period	6.59195999988085
		SemiMajorAxis	3.515638734032304
		Eccentricity	0.707516027880863
		Inclination	31.87258929557864
		AscendingNode	195.4088999183784
		ArgOfPericenter	172.4801849630168
		MeanAnomaly	0.8663023210913766
	}
	UniformRotation
	{
		Period	6
	}
	Albedo	0.04
	InfoURL	"http://ssd.jpl.nasa.gov/sbdb.cgi?sstr=21P"
}

"22P-Kopff:1919 O1:1906 Q1" "Sol"
{
	Class	"comet"
	Mesh	"asteroid.cmod"
	Texture	"comet.jpg"
	Radius	1.5
	Visible	true
	Clickable	true
	EllipticalOrbit
	{
		Epoch	2457380.5  # 2015 Dec 24
		Period	6.395766728053
		SemiMajorAxis	3.445531902348
		Eccentricity	0.547753120989
		Inclination	4.737006894577
		AscendingNode	120.867595457638
		ArgOfPericenter	162.902863002206
		MeanAnomaly	9.23182388244
	}
	UniformRotation
	{
		Period	6
	}
	Albedo	0.05
	InfoURL	"http://ssd.jpl.nasa.gov/sbdb.cgi?sstr=22P"
}

"23P-Brorsen-Metcalf:1989 N1:1919 Q1:1847 O1" "Sol"
{
	Class	"comet"
	Mesh	"asteroid.cmod"
	Texture	"comet.jpg"
	Radius	2.5
	Visible	true
	Clickable	true
	EllipticalOrbit
	{
		Epoch	2447800.5  # 1989 Oct 01
		Period	70.522583496924
		SemiMajorAxis	17.069206834622
		Eccentricity	0.971952257925
		Inclination	19.333940469819
		AscendingNode	311.585462214107
		ArgOfPericenter	129.610683678867
		MeanAnomaly	0.26641915255
	}
	UniformRotation
	{
		Period	6
	}
	Albedo	0.04
	InfoURL	"http://ssd.jpl.nasa.gov/sbdb.cgi?sstr=23P"
}

"24P-Schaumasse:1919 U1:1911 X1" "Sol"
{
	Class	"comet"
	Mesh	"asteroid.cmod"
	Texture	"comet.jpg"
	Radius	1.3
	Visible	true
	Clickable	true
	EllipticalOrbit
	{
		Epoch	2452120.5  # 2001 Jul 30
		Period	8.247464538653
		SemiMajorAxis	4.082017257296
		Eccentricity	0.704800355728
		Inclination	11.751529757768
		AscendingNode	79.831038304375
		ArgOfPericenter	57.874492549456
		MeanAnomaly	10.557100217182
	}
	UniformRotation
	{
		Period	6
	}
	Albedo	0.04
	InfoURL	"http://ssd.jpl.nasa.gov/sbdb.cgi?sstr=24P"
}

"25D-Neujmin:Neujmin 2:1926 V2:1916 D1" "Sol"
{
	Class	"comet"
	Mesh	"asteroid.cmod"
	Texture	"comet.jpg"
	Radius	2.5
	Ending	"1927 03 21"
	Visible	true
	Clickable	true
	EllipticalOrbit
	{
		Epoch	2424960.5  # 1927 Mar 21
		Period	5.429630278527
		SemiMajorAxis	3.089166883911
		Eccentricity	0.566818596286
		Inclination	10.638713096388
		AscendingNode	328.716950965724
		ArgOfPericenter	193.704033556202
		MeanAnomaly	11.577066231236
	}
	UniformRotation
	{
		Period	6
	}
	Albedo	0.04
	InfoURL	"http://ssd.jpl.nasa.gov/sbdb.cgi?sstr=25D"
}

"26P-Grigg-Skjellerup:1922 K1:1902 O1:1808 C1" "Sol"
{
	Class	"comet"
	Mesh	"asteroid.cmod"
	Texture	"comet.jpg"
	Radius	1.3
	Visible	true
	Clickable	true
	EllipticalOrbit
	{
		Epoch	2448813.5  # 1992 Jul 10
		Period	5.10133715311849
		SemiMajorAxis	2.96335637722091
		Eccentricity	0.664336748932297
		Inclination	21.09881617866061
		AscendingNode	213.3403034674733
		ArgOfPericenter	359.2648773140494
		MeanAnomaly	357.6548990967658
	}
	UniformRotation
	{
		Period	6
	}
	Albedo	0.08
	InfoURL	"http://ssd.jpl.nasa.gov/sbdb.cgi?sstr=26P"
}

"27P-Crommelin:1956 S1:1928 W1:1873 V1:1818 D1" "Sol"
{
	Class	"comet"
	Mesh	"asteroid.cmod"
	Texture	"comet.jpg"
	Radius	2.5
	Visible	true
	Clickable	true
	EllipticalOrbit
	{
		Epoch	2456364.5  # 2013 Mar 13
		Period	28.069283951635
		SemiMajorAxis	9.235960944227
		Eccentricity	0.918981092313
		Inclination	28.966872787231
		AscendingNode	250.626409839024
		ArgOfPericenter	196.025396891382
		MeanAnomaly	20.615772516836
	}
	UniformRotation
	{
		Period	6
	}
	Albedo	0.04
	InfoURL	"http://ssd.jpl.nasa.gov/sbdb.cgi?sstr=27P"
}

"28P-Neujmin:Neujmin 1:1931 S1:1913 R2" "Sol"
{
	Class	"comet"
	Mesh	"asteroid.cmod"
	Texture	"comet.jpg"
	Radius	10.7
	Visible	true
	Clickable	true
	EllipticalOrbit
	{
		Epoch	2453080.5  # 2004 Mar 16
		Period	18.169191853189
		SemiMajorAxis	6.911170475097
		Eccentricity	0.775413310267
		Inclination	14.185639824215
		AscendingNode	347.028924133854
		ArgOfPericenter	346.916248089759
		MeanAnomaly	24.121831156777
	}
	UniformRotation
	{
		Period	6
	}
	Albedo	0.025
	InfoURL	"http://ssd.jpl.nasa.gov/sbdb.cgi?sstr=28P"
}

"29P-Schwassmann-Wachmann:Schwassmann-Wachmann 1:1927 V1:1902 E1" "Sol"
{
	Class	"comet"
	Mesh	"asteroid.cmod"
	Texture	"comet.jpg"
	Radius	15.4
	Visible	true
	Clickable	true
	EllipticalOrbit
	{
		Epoch	2457380.5  # 2015 Dec 24
		Period	14.744650036349
		SemiMajorAxis	6.012902722853
		Eccentricity	0.041595667712
		Inclination	9.377379824125
		AscendingNode	312.406705589426
		ArgOfPericenter	49.49588898287
		MeanAnomaly	280.203140395826
	}
	UniformRotation
	{
		Period	6
	}
	Albedo	0.04
	InfoURL	"http://ssd.jpl.nasa.gov/sbdb.cgi?sstr=29P"
}

"30P-Reinmuth:Reinmuth 1:1934 V1:1928 D1" "Sol"
{
	Class	"comet"
	Mesh	"asteroid.cmod"
	Texture	"comet.jpg"
	Radius	3.9
	Visible	true
	Clickable	true
	EllipticalOrbit
	{
		Epoch	2455760.5  # 2011 Jul 18
		Period	7.335909687667
		SemiMajorAxis	3.775407630339
		Eccentricity	0.50119512275
		Inclination	8.122650127481
		AscendingNode	119.7411580635
		ArgOfPericenter	13.174074402219
		MeanAnomaly	61.063714465843
	}
	UniformRotation
	{
		Period	6
	}
	Albedo	0.04
	InfoURL	"http://ssd.jpl.nasa.gov/sbdb.cgi?sstr=30P"
}

"31P-Schwassmann-Wachmann:Schwassmann-Wachmann 2:1929 B1" "Sol"
{
	Class	"comet"
	Mesh	"asteroid.cmod"
	Texture	"comet.jpg"
	Radius	3.1
	Visible	true
	Clickable	true
	EllipticalOrbit
	{
		Epoch	2456364.5  # 2013 Mar 13
		Period	8.750882247688
		SemiMajorAxis	4.246480086304
		Eccentricity	0.193904956006
		Inclination	4.546633992034
		AscendingNode	114.154812275302
		ArgOfPericenter	18.01931880463
		MeanAnomaly	100.783520527267
	}
	UniformRotation
	{
		Period	6
	}
	Albedo	0.04
	InfoURL	"http://ssd.jpl.nasa.gov/sbdb.cgi?sstr=31P"
}

"32P-Comas Sola:1935 P1:1926 V1" "Sol"
{
	Class	"comet"
	Mesh	"asteroid.cmod"
	Texture	"comet.jpg"
	Radius	4.2
	Visible	true
	Clickable	true
	EllipticalOrbit
	{
		Epoch	2457262.5  # 2015 Aug 28
		Period	9.566206484848
		SemiMajorAxis	4.506309665623
		Eccentricity	0.556042272975
		Inclination	9.970681796114
		AscendingNode	57.824132740138
		ArgOfPericenter	53.304125275724
		MeanAnomaly	32.407752220846
	}
	UniformRotation
	{
		Period	6
	}
	Albedo	0.04
	InfoURL	"http://ssd.jpl.nasa.gov/sbdb.cgi?sstr=32P"
}

